235P/LINEAR,e,10.6706,202.2436,346.4389,3.526261,0.1488444,0.43388524,236.3466,08/19.0/2023,2000,g 12.0,4.0
# From MPEC 2023-J29
236P/LINEAR,e,16.3536,245.5694,119.3688,3.727167,0.1369733,0.50940615,286.7645,08/19.0/2023,2000,g 14.0,4.0
# From MPEC 2023-P65
237P/LINEAR,e,14.0167,245.3596,25.2654,3.510317,0.1498596,0.43393558,14.4332,08/19.0/2023,2000,g 14.5,2.0
# From MPEC 2022-YN2
238P/Read,e,1.2640,51.6261,324.2033,3.165283,0.1750190,0.25134864,76.9445,08/19.0/2023,2000,g 14.5,4.0
# From MPEC 2021-F20
239P/LINEAR,e,11.3061,255.9390,220.3483,4.466664,0.1044069,0.63066953,175.6707,08/19.0/2023,2000,g 17.5,2.0
# From MPEC 2023-CD7
240P/NEAT,e,23.5344,74.9123,351.9723,3.863256,0.1297997,0.45010594,249.1609,08/19.0/2023,2000,g 11.0,4.0
# From MPEC 2022-J42
241P/LINEAR,e,21.0975,305.4542,111.5004,4.923052,0.0902303,0.61045379,68.0277,08/19.0/2023,2000,g 13.5,4.0
# From MPEC 2023-OA6
242P/Spahr,e,32.4932,180.3795,245.0325,5.517349,0.0760516,0.28035192,322.4457,08/19.0/2023,2000,g  8.0,4.0
# From MPEC 2022-K19
243P/NEAT,e,7.6427,87.5855,283.6886,3.829228,0.1315338,0.36065447,238.8546,08/19.0/2023,2000,g 12.5,4.0
# From MPEC 2023-J29
244P/Scotti,e,2.2592,353.9999,93.1808,4.898120,0.0909201,0.19956314,24.9262,08/19.0/2023,2000,g  9.0,4.0
# From MPEC 2022-CN4
245P/WISE,e,21.1829,316.6724,316.8210,4.048618,0.1209884,0.45585929,244.4061,08/19.0/2023,2000,g 14.0,4.0
# From MPEC 2023-P65
246P/NEAT,e,16.2277,76.9249,179.2309,4.048800,0.1209803,0.29056055,108.9468,08/19.0/2023,2000,g 10.5,4.0
# From MPEC 2021-F20
247P/LINEAR,e,13.6597,54.0341,47.4010,3.966682,0.1247564,0.62499324,214.7441,08/19.0/2023,2000,g 16.5,2.0
# From MPC 75730
248P/Gibbs,e,6.3513,207.8136,209.8942,5.988250,0.0672596,0.63928881,309.0267,08/19.0/2023,2000,g 14.0,4.0
# From MPEC 2022-YN2
249P/LINEAR,e,8.3856,239.0571,65.7535,2.763970,0.2144885,0.81951854,245.7517,08/19.0/2023,2000,g 15.5,4.0
# From MPC110497
250P/Larson,e,13.1508,73.3310,46.0245,3.771203,0.1345811,0.39874862,274.1918,08/19.0/2023,2000,g 14.5,4.0
# From MPC104795
251P/LINEAR,e,23.3868,219.3421,31.2346,3.513746,0.1496403,0.50447387,333.3266,08/19.0/2023,2000,g 16.5,2.0
# From MPEC 2021-S45
252P/LINEAR,e,10.4144,190.9108,343.3991,3.051270,0.1849196,0.67088923,142.2605,08/19.0/2023,2000,g 17.5,4.0
# From MPEC 2020-FB5
253P/PANSTARRS,e,4.9436,146.8715,230.7602,3.463413,0.1529142,0.41462751,294.4190,08/19.0/2023,2000,g 14.5,4.0
# From MPEC 2023-FK0
254P/McNaught,e,32.5591,129.1877,219.7047,4.617045,0.0993477,0.31944171,104.5803,08/19.0/2023,2000,g 11.0,4.0
# From MPEC 2021-UA9
255P/Levy,e,13.4134,275.6535,186.0135,2.942154,0.1953017,0.71162213,67.5119,08/19.0/2023,2000,g 14.1,4.0
# From MPEC 2023-O39
256P/LINEAR,e,27.6210,81.3275,124.1813,4.639090,0.0986404,0.41793589,15.7642,08/19.0/2023,2000,g 14.0,2.0
# From MPEC 2023-A50
257P/Catalina,e,20.2199,207.7123,117.7834,3.765160,0.1349052,0.42969581,144.7045,08/19.0/2023,2000,g 11.5,4.0
# From MPEC 2021-U31
258P/PANSTARRS,e,6.7481,126.2332,25.6773,4.392687,0.1070554,0.20861484,123.9601,08/19.0/2023,2000,g 13.0,4.0
# From MPC106349
259P/Garradd,e,15.8975,51.4326,257.5035,2.728811,0.2186472,0.33888479,121.7670,08/19.0/2023,2000,g 15.5,4.0
# From MPEC 2022-O01
260P/McNaught,e,15.0523,349.3304,18.4666,3.623344,0.1429025,0.60929411,205.4732,08/19.0/2023,2000,g 13.5,4.0
# From MPEC 2021-J28
261P/Larson,e,6.0718,291.0878,67.3092,3.490443,0.1511413,0.42324254,229.8696,08/19.0/2023,2000,g 14.0,4.0
# From MPC 82322
262P/McNaught-Russell,e,29.3009,217.8619,171.0735,6.870706,0.0547270,0.81637491,213.7536,08/19.0/2023,2000,g 13.5,4.0
# From MPEC 2023-O39
263P/Gibbs,e,11.5220,105.5048,35.0451,3.041722,0.1857910,0.59357763,37.2355,08/19.0/2023,2000,g 18.0,4.0
# From MPC114608
264P/Larsen,e,26.1949,219.6930,346.0724,3.892076,0.1283607,0.37371076,192.2053,08/19.0/2023,2000,g 13.0,4.0
# From MPC 79870
265P/LINEAR,e,14.3580,342.9254,33.5124,4.257699,0.1121868,0.64754250,103.2958,08/19.0/2023,2000,g 14.5,4.0
# From MPEC 2021-F20
266P/Christensen,e,3.4269,4.9822,97.6712,3.530545,0.1485735,0.34024816,180.7166,08/19.0/2023,2000,g 14.7,4.0
# From MPC114608
267P/LONEOS,e,6.1446,228.5644,114.2559,3.209931,0.1713801,0.61431281,317.1907,08/19.0/2023,2000,g 19.5,4.0
# From MPC 92277
268P/Bernardi,e,15.6531,125.9439,359.8557,4.598309,0.0999555,0.47634751,311.2753,08/19.0/2023,2000,g 14.0,4.0
# From MPEC 2023-J29
269P/Jedicke,e,7.0832,241.7619,225.6648,7.065560,0.0524788,0.43217889,170.2039,08/19.0/2023,2000,g 10.0,4.0
# From MPC 88332
270P/Gehrels,e,2.9252,223.0503,209.7754,6.655927,0.0573973,0.46953864,213.3950,08/19.0/2023,2000,g  8.0,4.0
# From MPC 92277
271P/van Houten-Lemmon,e,6.8710,9.3094,36.4683,7.034255,0.0528296,0.39603445,194.4357,08/19.0/2023,2000,g 11.0,4.0
# From MPEC 2023-D41
272P/NEAT,e,18.0735,109.4556,27.8880,4.461753,0.1045793,0.45497142,41.6208,08/19.0/2023,2000,g 16.0,2.0
# From MPC 82723
273P/Pons-Gambart,e,136.5998,320.3871,20.2665,31.99470,0.0054461,0.97446659,0.0000,12/22.6866/2012,2000,g 11.5,4.0
# From MPEC 2023-M14
274P/Tombaugh-Tenagra,e,15.8170,81.3230,38.4704,4.377568,0.1076105,0.43973176,53.5370,08/19.0/2023,2000,g 13.9,4.0
# From MPC 81862
275P/Hermann,e,21.2614,348.7454,173.9150,5.784037,0.0708529,0.71313061,277.3044,08/19.0/2023,2000,g 17.0,4.0
# From MPEC 2023-P65
276P/Vorobjov,e,14.8124,211.3401,199.4162,5.329683,0.0801036,0.26854268,321.4645,08/19.0/2023,2000,g 11.5,4.0
# From MPEC 2021-F20
277P/LINEAR,e,16.7825,276.2871,152.3568,3.853459,0.1302951,0.50632256,125.2624,08/19.0/2023,2000,g 15.1,4.0
# From MPEC 2021-S45
278P/McNaught,e,6.6914,15.3473,237.4916,3.677632,0.1397499,0.43807125,149.6863,08/19.0/2023,2000,g 14.0,4.0
# From MPEC 2022-K19
279P/LaSagra,e,5.0503,346.2216,5.8424,3.576216,0.1457366,0.39936980,17.7045,08/19.0/2023,2000,g 14.0,4.0
# From MPEC 2023-J95
280P/Larsen,e,11.7721,131.3807,104.7390,4.529393,0.1022455,0.41710397,1.4601,08/19.0/2023,2000,g 12.5,4.0
# From MPEC 2023-D41
281P/MOSS,e,4.7178,87.1752,26.6731,4.879712,0.0914351,0.17320833,18.1361,08/19.0/2023,2000,g 11.0,4.0
# From MPC133426
282P/,e,5.8118,9.2942,217.6091,4.237724,0.1129809,0.18786836,74.9831,08/19.0/2023,2000,g 13.5,2.0
# From MPEC 2022-K19
283P/Spacewatch,e,14.4565,161.1250,22.1994,4.134569,0.1172354,0.48435446,83.2661,08/19.0/2023,2000,g 16.0,2.0
# From MPEC 2023-D41
284P/McNaught,e,11.8600,144.2662,202.4531,3.676686,0.1398039,0.37518216,98.6301,08/19.0/2023,2000,g 13.0,4.0
# From MPEC 2023-B57
285P/LINEAR,e,25.0374,185.5036,178.3930,4.507593,0.1029881,0.61861743,22.5324,08/19.0/2023,2000,g 15.0,4.0
# From MPEC 2022-X67
286P/Christensen,e,17.0558,283.7633,24.8827,4.111045,0.1182431,0.42650507,54.8188,08/19.0/2023,2000,g 14.0,4.0
# From MPEC 2023-P65
287P/Christensen,e,16.3209,139.0423,189.1646,4.164466,0.1159752,0.27141400,5.0726,08/19.0/2023,2000,g 13.5,4.0
# From MPC133426
288P/,e,3.2383,83.1226,280.2245,3.048338,0.1851866,0.20040177,99.1403,08/19.0/2023,2000,g 16.0,2.0
# From MPEC 2023-HD1
289P/Blanpain,e,5.9000,68.8905,9.8438,3.045055,0.1854861,0.68623776,247.8955,08/19.0/2023,2000,g 19.7,4.0
# From MPC 95214
290P/Jager,e,20.0244,302.6610,181.8357,6.217680,0.0635714,0.62731126,222.3045,08/19.0/2023,2000,g 10.5,4.0
# From MPEC 2023-J29
291P/NEAT,e,6.3096,237.6589,173.5101,4.535659,0.1020337,0.43443051,10.9120,08/19.0/2023,2000,g 13.0,4.0
# From MPEC 2022-K19
292P/Li,e,24.3039,90.9113,319.5698,6.100329,0.0654145,0.58986106,227.6943,08/19.0/2023,2000,g 12.5,4.0
# From MPEC 2022-L66
293P/Spacewatch,e,9.0615,78.4007,40.9228,3.640038,0.1419205,0.41869933,138.0498,08/19.0/2023,2000,g 14.5,4.0
# From MPEC 2020-SI8
294P/LINEAR,e,17.7438,310.3866,236.9822,3.188072,0.1731458,0.60307022,234.9132,08/19.0/2023,2000,g 15.5,4.0
# From MPEC 2022-K19
295P/LINEAR,e,21.0749,7.4254,72.9152,5.303969,0.0806868,0.61733129,273.7556,08/19.0/2023,2000,g 12.0,4.0
# From MPEC 2021-N06
296P/Garradd,e,25.2662,263.5343,349.9480,3.490412,0.1511434,0.47926321,161.0718,08/19.0/2023,2000,g 14.0,4.0
# From MPC102956
297P/Beshore,e,10.4005,94.6700,137.3632,3.477917,0.1519586,0.32029151,141.2597,08/19.0/2023,2000,g 15.0,4.0
# From MPC114609
298P/Christensen,e,7.8706,52.8152,100.6051,3.589810,0.1449095,0.38624544,156.1169,08/19.0/2023,2000,g 15.0,4.0
# From MPEC 2023-OA6
299P/Catalina-PANSTARRS,e,10.4672,271.5915,323.7273,4.389015,0.1071898,0.28091099,332.6033,08/19.0/2023,2000,g 11.5,4.0
# From MPEC 2023-J95
300P/Catalina,e,5.6744,95.6180,222.9549,2.698870,0.2222957,0.69172422,28.8727,08/19.0/2023,2000,g 16.0,4.0
# From MPC 89014
301P/LINEAR-NEAT,e,10.3335,351.1557,193.5020,5.742921,0.0716151,0.58562951,235.6581,08/19.0/2023,2000,g 13.0,4.0
# From MPEC 2023-N01
302P/Lemmon-PANSTARRS,e,6.0338,121.7231,208.5454,4.271870,0.1116290,0.23011904,296.6051,08/19.0/2023,2000,g 12.5,4.0
# From MPC 92278
303P/NEAT,e,7.0185,347.9562,357.0145,5.042708,0.0870379,0.51079170,280.3143,08/19.0/2023,2000,g 13.5,4.0
# From MPEC 2022-K19
304P/Ory,e,2.6075,58.9070,335.2781,3.150588,0.1762450,0.60101111,194.0074,08/19.0/2023,2000,g 16.5,4.0
# From MPC101100
305P/Skiff,e,11.6703,240.1047,147.3913,4.638413,0.0986620,0.69402740,315.0009,08/19.0/2023,2000,g 18.0,4.0
# From MPC 92278
306P/LINEAR,e,8.3065,341.3699,0.8964,3.124292,0.1784747,0.59298472,232.6745,08/19.0/2023,2000,g 19.0,4.0
# From MPC 92278
307P/LINEAR,e,4.4346,158.1527,222.1949,5.788757,0.0707662,0.67558277,223.3900,08/19.0/2023,2000,g 15.0,4.0
# From MPEC 2022-C56
308P/Lagerkvist-Carsenty,e,4.8553,63.0351,333.7125,6.599362,0.0581368,0.36473648,175.5787,08/19.0/2023,2000,g 13.0,2.0
# From MPEC 2023-OA6
309P/LINEAR,e,17.0238,10.1440,49.9359,4.374551,0.1077219,0.61833903,335.9730,08/19.0/2023,2000,g 15.0,4.0
# From MPEC 2023-OA6
310P/Hill,e,13.1247,8.9224,31.6327,4.188146,0.1149930,0.42297988,352.4387,08/19.0/2023,2000,g 13.5,4.0
# From MPEC 2021-BE3
311P/PANSTARRS,e,4.9695,279.1951,144.3529,2.188936,0.3043369,0.11597704,318.5478,08/19.0/2023,2000,g 17.0,4.0
# From MPEC 2021-BE3
312P/NEAT,e,19.7591,144.6683,207.6811,3.470276,0.1524608,0.42750541,161.2766,08/19.0/2023,2000,g 16.0,4.0
# From MPEC 2021-S45
